[{"OBJECT_NAME":"STARLINK-1595","OBJECT_ID":"2020-057AU","EPOCH":"2026-03-09T22:28:07.003488","MEAN_MOTION":15.50215839,"ECCENTRICITY":0.00065785,"INCLINATION":53.0492,"RA_OF_ASC_NODE":295.4863,"ARG_OF_PERICENTER":121.0092,"MEAN_ANOMALY":239.1563,"EPHEMERIS_TYPE":0,"CLASSIFICATION_TYPE":"U","NORAD_CAT_ID":46159,"ELEMENT_SET_NO":999,"REV_AT_EPOCH":30764,"BSTAR":0.0019946424,"MEAN_MOTION_DOT":0.00115887,"MEAN_MOTION_DDOT":0},{"OBJECT_NAME":"FLOCK 4Q-26","OBJECT_ID":"2023-174AE","EPOCH":"2026-03-09T17:31:54.974496","MEAN_MOTION":15.50866575,"ECCENTRICITY":0.00073348,"INCLINATION":97.3894,"RA_OF_ASC_NODE":158.0869,"ARG_OF_PERICENTER":149.9195,"MEAN_ANOMALY":210.2479,"EPHEMERIS_TYPE":0,"CLASSIFICATION_TYPE":"U","NORAD_CAT_ID":58284,"ELEMENT_SET_NO":999,"REV_AT_EPOCH":13038,"BSTAR":0.00056917098,"MEAN_MOTION_DOT":0.00032914,"MEAN_MOTION_DDOT":0}]
